QIANFAN-49              
1 62250U 24232P   25310.77077190  .00000225  00000+0  33032-3 0  9999
2 62250  89.0044  44.8569 0012364 300.8891  59.1044 13.50971650 62988
QIANFAN-50              
1 62251U 24232Q   25310.79545987  .00000216  00000+0  31589-3 0  9991
2 62251  89.0049  44.8606 0014033 302.1524  57.8265 13.50972171 63013
QIANFAN-51              
1 62252U 24232R   25310.77901618  .00000226  00000+0  33106-3 0  9995
2 62252  89.0043  44.8583 0011564 306.9000  53.1091 13.50984141 63004
QIANFAN-52              
1 62253U 24232S   25310.73374742  .00000203  00000+0  29539-3 0  9994
2 62253  89.0040  44.7379 0013503 297.8313  62.1470 13.50971017 63081
QIANFAN-53              
1 62254U 24232T   25310.78731655  .00000211  00000+0  30850-3 0  9997
2 62254  89.0047  44.8342 0012391 299.0551  60.9358 13.50982337 63057
QIANFAN-54              
1 62255U 24232U   25310.75433852  .00000211  00000+0  30801-3 0  9999
2 62255  89.0039  44.5193 0001755  36.8558 323.2713 13.50984505 94554
QIANFAN-55              
1 62785U 25016A   25310.78063292  .00000047  00000+0  54082-4 0  9993
2 62785  88.9751 106.9213 0019000  92.7704 267.5622 13.50969940 42337
QIANFAN-56              
1 62786U 25016B   25310.79695993  .00000054  00000+0  65133-4 0  9991
2 62786  88.9724 106.7658 0017660  94.9351 265.3817 13.50978392 42389
